{"generatedAt":"2026-04-25T07:27:05.313907Z","satellites":[{"name":"STARLINK-5814","tle1":"1 55777U 23028AN  26114.40410000  .00000459  00000+0  46284-4 0  9994","tle2":"2 55777  69.9988 109.0762 0003651 265.9607  94.1135 14.98328929173387"},{"name":"STARLINK-5816","tle1":"1 55778U 23028AP  26114.39991120  .00000293  00000+0  32348-4 0  9992","tle2":"2 55778  69.9988 109.0629 0003866 264.1304  95.9414 14.98311915173389"},{"name":"STARLINK-5817","tle1":"1 55779U 23028AQ  26114.90454120 -.00000087  00000+0  53436-6 0  9999","tle2":"2 55779  69.9988  87.7312 0003541 265.0581  95.0173 14.98330529173956"},{"name":"STARLINK-5819","tle1":"1 55780U 23028AR  26114.72953556 -.00001370  00000+0 -10698-3 0  9995","tle2":"2 55780  69.9988 108.2063 0003357 270.4861  89.5913 14.98343519173432"},{"name":"STARLINK-5820","tle1":"1 55781U 23028AS  26114.40825383  .00000446  00000+0  45153-4 0  9993","tle2":"2 55781  69.9988 109.1256 0003595 269.7058  90.3689 14.98330984173386"},{"name":"STARLINK-5826","tle1":"1 55782U 23028AT  26114.90027265  .00031509  00000+0  26184-2 0  9997","tle2":"2 55782  69.9987  88.1223 0004611 265.9090  94.1543 14.98593744173948"},{"name":"STARLINK-5825","tle1":"1 55783U 23028AU  26114.36631498  .00000434  00000+0  44157-4 0  9992","tle2":"2 55783  69.9984  89.4678 0003350 274.3254  85.7523 14.98335097173869"},{"name":"STARLINK-5797","tle1":"1 55784U 23028AV  26114.95051687  .00000322  00000+0  34761-4 0  9990","tle2":"2 55784  70.0021  87.8962 0004552 281.4278  78.6369 14.98370894173956"},{"name":"STARLINK-5818","tle1":"1 55785U 23028AW  26114.36213993 -.00003507  00000+0 -28621-3 0  9993","tle2":"2 55785  69.9993  89.4540 0002959 279.8244  80.2581 14.98338842173867"},{"name":"STARLINK-5823","tle1":"1 55786U 23028AX  26114.66668981 -.00000558  00000+0 -38938-4 0  9994","tle2":"2 55786  70.0009  88.6125 0003326 269.1904   0.6784 14.98326083  5772"},{"name":"STARLINK-5811","tle1":"1 55787U 23028AY  26114.95880691 -.00000567  00000+0 -39684-4 0  9990","tle2":"2 55787  69.9990  87.9260 0003428 268.2411  91.8355 14.98335445173951"},{"name":"STARLINK-5804","tle1":"1 55788U 23028AZ  26114.95463213  .00000147  00000+0  20082-4 0  9992","tle2":"2 55788  69.9988  87.9114 0003257 269.9970  90.0816 14.98332559173951"},{"name":"STARLINK-5815","tle1":"1 55789U 23028BA  26114.92958738  .00000443  00000+0  44949-4 0  9998","tle2":"2 55789  69.9988  87.8205 0003442 267.3601  92.7164 14.98330220173959"},{"name":"STARLINK-5813","tle1":"1 55790U 23028BB  26114.93393439  .00000623  00000+0  60028-4 0  9998","tle2":"2 55790  69.9989  87.8381 0003232 272.3585  87.7204 14.98339648173953"},{"name":"STARLINK-5807","tle1":"1 55791U 23028BC  26114.94630533  .00000343  00000+0  36533-4 0  9992","tle2":"2 55791  69.9989  87.8821 0003219 270.5354  89.5436 14.98325194173950"},{"name":"STARLINK-5856","tle1":"1 55914U 23037A   26114.62199396  .00000154  00000+0  20674-4 0  9990","tle2":"2 55914  70.0005 188.7964 0003269 268.9943  91.0842 14.98331054171058"},{"name":"STARLINK-5859","tle1":"1 55915U 23037B   26114.91668981 -.00021242  00000+0 -17774-2 0  9992","tle2":"2 55915  70.0011 187.9513 0003595 268.6096 330.6335 14.98337076  5566"},{"name":"STARLINK-5796","tle1":"1 55916U 23037C   26114.61781911 -.00000834  00000+0 -62052-4 0  9994","tle2":"2 55916  70.0006 188.7812 0003867 269.0558  91.0158 14.98337831170363"},{"name":"STARLINK-5867","tle1":"1 55918U 23037E   26114.61364524  .00000566  00000+0  55192-4 0  9990","tle2":"2 55918  70.0007 188.7661 0003716 268.8474  91.2259 14.98330633170362"},{"name":"STARLINK-5871","tle1":"1 55919U 23037F   26114.60546264  .00000405  00000+0  41753-4 0  9993","tle2":"2 55919  70.0001 188.7368 0003377 267.9577  92.1196 14.98329317170365"},{"name":"STARLINK-5862","tle1":"1 55920U 23037G   26114.54249041 -.00000016  00000+0  64485-5 0  9998","tle2":"2 55920  69.9996 169.0425 0003351 269.5471  90.5304 14.98328388170849"},{"name":"STARLINK-5861","tle1":"1 55921U 23037H   26114.52183909  .00000347  00000+0  36842-4 0  9998","tle2":"2 55921  70.0004 188.8470 0003092 269.4032  90.6773 14.98332808170355"},{"name":"STARLINK-5863","tle1":"1 55922U 23037J   26114.52601430  .00000149  00000+0  20299-4 0  9992","tle2":"2 55922  70.0003 188.8613 0003341 269.3836  90.6940 14.98331805170354"},{"name":"STARLINK-5854","tle1":"1 55923U 23037K   26114.53020036 -.00000125  00000+0 -26621-5 0  9993","tle2":"2 55923  70.0003 188.8769 0003613 267.5522  92.5223 14.98322254170354"},{"name":"STARLINK-5849","tle1":"1 55924U 23037L   26114.53831331 -.00000048  00000+0  37506-5 0  9999","tle2":"2 55924  69.9996 169.0265 0003454 269.0122  91.0641 14.98333160170841"},{"name":"STARLINK-5922","tle1":"1 55925U 23037M   26114.51766677  .00000147  00000+0  20133-4 0  9994","tle2":"2 55925  70.0007 188.8316 0003058 270.4144  89.6664 14.98328492170350"},{"name":"STARLINK-5921","tle1":"1 55926U 23037N   26114.52996395  .00000044  00000+0  11517-4 0  9990","tle2":"2 55926  69.9998 168.9992 0003667 269.2377  90.8362 14.98332864170847"},{"name":"STARLINK-5919","tle1":"1 55927U 23037P   26114.64300239  .00000927  00000+0  85499-4 0  9990","tle2":"2 55927  70.0004 188.4668 0003002 264.6238  95.4578 14.98330560170362"},{"name":"STARLINK-5930","tle1":"1 55928U 23037Q   26114.63867989  .00000520  00000+0  51377-4 0  9997","tle2":"2 55928  70.0006 188.4508 0002857 269.7997  90.2835 14.98328051170375"},{"name":"STARLINK-5896","tle1":"1 55930U 23037S   26114.50074657  .00005011  00000+0  42740-3 0  9991","tle2":"2 55930  70.0020 168.9012 0003382 263.6771  96.4003 14.98331729170847"},{"name":"STARLINK-5897","tle1":"1 55931U 23037T   26114.63449646 -.00000351  00000+0 -21604-4 0  9991","tle2":"2 55931  70.0006 188.4360 0003604 271.8945  88.1801 14.98326569170374"},{"name":"STARLINK-5848","tle1":"1 55932U 23037U   26114.52554464  .00000343  00000+0  36546-4 0  9995","tle2":"2 55932  69.9989 148.6993 0003639 268.3413  91.7329 14.98331733171343"},{"name":"STARLINK-5852","tle1":"1 55933U 23037V   26114.59254976  .00000176  00000+0  22554-4 0  9996","tle2":"2 55933  69.9999 168.8183 0003336 265.7436  94.3342 14.98333141170854"},{"name":"STARLINK-5927","tle1":"1 55934U 23037W   26114.50091361  .00000391  00000+0  40583-4 0  9996","tle2":"2 55934  69.9998 168.8965 0003512 269.5567  90.5189 14.98331092170844"},{"name":"STARLINK-5920","tle1":"1 55935U 23037X   26114.52161624  .00000192  00000+0  23890-4 0  9990","tle2":"2 55935  69.9994 168.9689 0003642 268.9854  91.0888 14.98333783170842"},{"name":"STARLINK-5882","tle1":"1 55936U 23037Y   26114.46295409 -.00000102  00000+0 -70586-6 0  9992","tle2":"2 55936  69.9994 148.8834 0003489 270.9922  89.0837 14.98331436171339"},{"name":"STARLINK-5913","tle1":"1 55937U 23037Z   26114.58421564  .00000965  00000+0  88667-4 0  9991","tle2":"2 55937  69.9995 168.7862 0003675 266.3375  93.7364 14.98336830170857"},{"name":"STARLINK-5909","tle1":"1 55938U 23037AA  26114.58002839 -.00000078  00000+0  12540-5 0  9996","tle2":"2 55938  69.9994 168.7722 0003580 269.9515  90.1234 14.98333134170853"},{"name":"STARLINK-5918","tle1":"1 55939U 23037AB  26114.43815823  .00000219  00000+0  26150-4 0  9993","tle2":"2 55939  69.9996 169.0791 0004327 268.9854  91.0809 14.98330658170835"},{"name":"STARLINK-5864","tle1":"1 55940U 23037AC  26114.50909519 -.00000029  00000+0  53517-5 0  9997","tle2":"2 55940  69.9998 168.9256 0003467 269.6584  90.4177 14.98332351170849"},{"name":"STARLINK-5914","tle1":"1 55941U 23037AD  26114.53415961  .00001125  00000+0  10207-3 0  9998","tle2":"2 55941  69.9998 169.0121 0003788 273.4842  86.5884 14.98320622170848"},{"name":"STARLINK-5917","tle1":"1 55942U 23037AE  26114.55080948  .00000418  00000+0  42801-4 0  9994","tle2":"2 55942  69.9996 168.6678 0003713 266.5561  93.5173 14.98329489170858"},{"name":"STARLINK-5932","tle1":"1 55943U 23037AF  26114.55916314 -.00002480  00000+0 -20015-3 0  9995","tle2":"2 55943  69.9997 168.6881 0003347 268.1852  91.8924 14.98326267170856"},{"name":"STARLINK-5926","tle1":"1 55944U 23037AG  26114.55498327  .00000148  00000+0  20184-4 0  9990","tle2":"2 55944  69.9997 168.6817 0003590 268.4147  91.6600 14.98330742170858"},{"name":"STARLINK-5925","tle1":"1 55945U 23037AH  26114.49673788  .00000011  00000+0  87362-5 0  9991","tle2":"2 55945  70.0001 168.8831 0003378 266.6170  93.4602 14.98330319170847"},{"name":"STARLINK-5857","tle1":"1 55946U 23037AJ  26114.56334239  .00000410  00000+0  42180-4 0  9996","tle2":"2 55946  70.0001 168.7125 0003320 264.5367  95.5413 14.98314041170842"},{"name":"STARLINK-5851","tle1":"1 55947U 23037AK  26114.61448275  .00298605  45319-4  37971-3 0  9992","tle2":"2 55947  69.9968 151.0634 0004962 267.1128  92.9519 16.07214603171292"},{"name":"STARLINK-5900","tle1":"1 55948U 23037AL  26114.50887168  .00000069  00000+0  13546-4 0  9990","tle2":"2 55948  69.9984 149.0449 0003459 270.1459  89.9304 14.98331585171333"},{"name":"STARLINK-5899","tle1":"1 55949U 23037AM  26114.51722556  .00000500  00000+0  49718-4 0  9991","tle2":"2 55949  70.0006 149.0748 0002917 281.0133  79.0698 14.98328255171338"},{"name":"STARLINK-5911","tle1":"1 55950U 23037AN  26114.50469660  .00000071  00000+0  13750-4 0  9996","tle2":"2 55950  69.9990 149.0307 0003542 268.5145  91.5609 14.98330703171330"},{"name":"STARLINK-5908","tle1":"1 55951U 23037AP  26114.54663753  .00000227  00000+0  26852-4 0  9990","tle2":"2 55951  70.0000 168.6529 0003426 269.6883  90.3884 14.98328046170856"},{"name":"STARLINK-5893","tle1":"1 55952U 23037AQ  26114.91668981  .00062257  00000+0  51834-2 0  9997","tle2":"2 55952  70.0007 148.0186 0003616 267.9492 130.3670 14.98298159  5769"},{"name":"STARLINK-5892","tle1":"1 55954U 23037AS  26114.47965032  .00000437  00000+0  44383-4 0  9992","tle2":"2 55954  69.9992 148.9434 0003552 269.8353  90.2399 14.98333748171335"},{"name":"STARLINK-5878","tle1":"1 55955U 23037AT  26114.49635301 -.00000119  00000+0 -22118-5 0  9990","tle2":"2 55955  69.9989 149.0012 0003255 269.6240  90.4545 14.98327171171337"}]}